IRIDIUM 119             
1 42959U 17061E   24307.90827259  .00000198  00000+0  63512-4 0  9990
2 42959  86.3927 272.3008 0002588  92.1479 268.0013 14.34218153370061
IRIDIUM 107             
1 42960U 17061F   24307.85752119  .00001406  00000+0  49496-3 0  9995
2 42960  86.3927 272.3401 0002600  86.0072 274.1421 14.34217723370069
IRIDIUM 132             
1 42961U 17061G   24307.65456290  .00001037  00000+0  36330-3 0  9998
2 42961  86.3923 272.4085 0002572  83.1927 276.9562 14.34223504370037
IRIDIUM 136             
1 42962U 17061H   24307.89558672  .00000716  00000+0  24863-3 0  9993
2 42962  86.3927 272.3119 0002386  91.1180 269.0289 14.34216430370086
IRIDIUM 139             
1 42963U 17061J   24307.83215800  .00001233  00000+0  43312-3 0  9996
2 42963  86.3927 272.3904 0002551  85.9851 274.1636 14.34222932370086
IRIDIUM 125             
1 42964U 17061K   24307.88923958  .00000861  00000+0  30035-3 0  9996
2 42964  86.3931 272.4178 0002592  98.0310 262.1180 14.34217001370101
IRIDIUM 135             
1 43070U 17083A   24307.86336561  .00000816  00000+0  28424-3 0  9994
2 43070  86.4024 209.1140 0001798  75.1821 284.9573 14.34221830359391
IRIDIUM 138             
1 43071U 17083B   24307.81897214  .00001563  00000+0  55105-3 0  9993
2 43071  86.4016 208.8324 0002088  99.2529 260.8903 14.34212622359375
